[{"OBJECT_NAME":"YAOGAN-40 01A","OBJECT_ID":"2023-139A","EPOCH":"2026-03-09T23:20:31.440768","MEAN_MOTION":14.12429316,"ECCENTRICITY":0.00020937,"INCLINATION":85.9907,"RA_OF_ASC_NODE":304.5051,"ARG_OF_PERICENTER":91.437,"MEAN_ANOMALY":268.7053,"EPHEMERIS_TYPE":0,"CLASSIFICATION_TYPE":"U","NORAD_CAT_ID":57830,"ELEMENT_SET_NO":999,"REV_AT_EPOCH":12869,"BSTAR":6.725684e-5,"MEAN_MOTION_DOT":1.43e-6,"MEAN_MOTION_DDOT":0},{"OBJECT_NAME":"NOAA 17 DEB","OBJECT_ID":"2002-032BX","EPOCH":"2026-03-08T17:01:20.831232","MEAN_MOTION":14.20181644,"ECCENTRICITY":0.00954327,"INCLINATION":98.733,"RA_OF_ASC_NODE":348.3096,"ARG_OF_PERICENTER":18.9163,"MEAN_ANOMALY":341.552,"EPHEMERIS_TYPE":0,"CLASSIFICATION_TYPE":"U","NORAD_CAT_ID":48738,"ELEMENT_SET_NO":999,"REV_AT_EPOCH":25532,"BSTAR":0.0024000096,"MEAN_MOTION_DOT":5.321e-5,"MEAN_MOTION_DDOT":0}]
